[{"OBJECT_NAME":"KONDOR-FKA NO. 1","OBJECT_ID":"2023-074A","EPOCH":"2026-03-07T10:13:03.575712","MEAN_MOTION":15.19772289,"ECCENTRICITY":0.00017305,"INCLINATION":97.4394,"RA_OF_ASC_NODE":262.4533,"ARG_OF_PERICENTER":84.6258,"MEAN_ANOMALY":275.5174,"EPHEMERIS_TYPE":0,"CLASSIFICATION_TYPE":"U","NORAD_CAT_ID":56756,"ELEMENT_SET_NO":999,"REV_AT_EPOCH":15423,"BSTAR":0.0003518818,"MEAN_MOTION_DOT":7.463e-5,"MEAN_MOTION_DDOT":0},{"OBJECT_NAME":"STARLINK-30136","OBJECT_ID":"2023-079X","EPOCH":"2026-03-09T22:00:01.999584","MEAN_MOTION":15.19398117,"ECCENTRICITY":0.00021819,"INCLINATION":42.9997,"RA_OF_ASC_NODE":105.423,"ARG_OF_PERICENTER":293.1714,"MEAN_ANOMALY":139.2854,"EPHEMERIS_TYPE":0,"CLASSIFICATION_TYPE":"U","NORAD_CAT_ID":56844,"ELEMENT_SET_NO":999,"REV_AT_EPOCH":573,"BSTAR":0.0032058096,"MEAN_MOTION_DOT":0.00069572,"MEAN_MOTION_DDOT":0}]
